SL-3 R/B                
1 13403U 82079B   26085.26823600  .00005452  00000+0  21536-3 0  9990
2 13403  81.1482 173.5029 0025549 110.1911 250.2074 15.25018825380225
SL-14 R/B               
1 13553U 82092B   26085.13218557  .00000426  00000+0  45046-4 0  9995
2 13553  82.5663 126.0183 0018903 244.6927 169.4261 14.86680782331371
SL-3 R/B                
1 13819U 83010B   26085.12924315  .00014961  00000+0  29510-3 0  9992
2 13819  81.1051 342.0861 0016290 355.6276   4.4823 15.46905025360485
SL-3 R/B                
1 14208U 83075B   26085.27123156  .00010356  00000+0  27000-3 0  9992
2 14208  97.6146  90.4816 0021954 165.2633 194.9257 15.38797908332704
COSMOS 1536             
1 14699U 84013A   26085.06969458  .00005751  00000+0  23535-3 0  9991
2 14699  82.5421  91.5611 0013080 218.6006 141.4297 15.24039935275116
SL-14 R/B               
1 14820U 84027B   26085.32539226  .00000541  00000+0  59042-4 0  9992
2 14820  82.5410 229.4084 0016481 279.1670  80.7682 14.85993197250103
SL-8 R/B                
1 15483U 85006B   26084.45140903  .00000325  00000+0  11625-3 0  9993
2 15483  74.0444 232.1428 0017810 145.5024 270.1591 14.37794350156297
SL-12 R/B(2)            
1 15772U 85042D   26085.30417781  .00000122  00000+0  76107-4 0  9992
2 15772  71.1080  52.6240 0032852 100.5971   3.6806 14.21986990116755
SL-14 R/B               
1 15945U 85069B   26085.30511548  .00000500  00000+0  53682-4 0  9992
2 15945  82.5304   9.3132 0019875 133.9594 226.3267 14.86450671175306
SL-16 R/B               
1 16182U 85097B   26085.30354732  .00000052  00000+0  50109-4 0  9990
2 16182  71.0009 105.5760 0009505 240.3328 208.3879 14.16603371 89581
SL-14 R/B               
1 16496U 86006B   26084.94141600  .00000851  00000+0  87827-4 0  9990
2 16496  82.5246 244.4375 0075588 217.9602 141.6275 14.86838959151626
COSMOS 1743             
1 16719U 86034A   26085.20005903  .00042433  00000+0  52563-3 0  9994
2 16719  82.5305  56.4844 0003725 179.1804 180.9460 15.59875785182826
