CCSDS_OMM_VERS = 2.0
CREATION_DATE  = 
ORIGINATOR     = 

OBJECT_NAME    = SL-3 R/B
OBJECT_ID      = 1982-079B
CENTER_NAME    = EARTH
REF_FRAME      = TEME
TIME_SYSTEM    = UTC
MEAN_ELEMENT_THEORY = SGP/SGP4

EPOCH          = 2026-03-26T06:26:15.590400
MEAN_MOTION    = 15.25018825
ECCENTRICITY   = .0025549
INCLINATION    = 81.1482
RA_OF_ASC_NODE = 173.5029
ARG_OF_PERICENTER = 110.1911
MEAN_ANOMALY   = 250.2074

EPHEMERIS_TYPE = 0
CLASSIFICATION_TYPE = U
NORAD_CAT_ID   = 13403
ELEMENT_SET_NO = 999
REV_AT_EPOCH   = 38022
BSTAR          = .21536285E-3
MEAN_MOTION_DOT = .5452E-4
MEAN_MOTION_DDOT = 0

CCSDS_OMM_VERS = 2.0
CREATION_DATE  = 
ORIGINATOR     = 

OBJECT_NAME    = SL-14 R/B
OBJECT_ID      = 1982-092B
CENTER_NAME    = EARTH
REF_FRAME      = TEME
TIME_SYSTEM    = UTC
MEAN_ELEMENT_THEORY = SGP/SGP4

EPOCH          = 2026-03-26T03:10:20.833248
MEAN_MOTION    = 14.86680782
ECCENTRICITY   = .0018903
INCLINATION    = 82.5663
RA_OF_ASC_NODE = 126.0183
ARG_OF_PERICENTER = 244.6927
MEAN_ANOMALY   = 169.4261

EPHEMERIS_TYPE = 0
CLASSIFICATION_TYPE = U
NORAD_CAT_ID   = 13553
ELEMENT_SET_NO = 999
REV_AT_EPOCH   = 33137
BSTAR          = .45045654E-4
MEAN_MOTION_DOT = .426E-5
MEAN_MOTION_DDOT = 0

CCSDS_OMM_VERS = 2.0
CREATION_DATE  = 
ORIGINATOR     = 

OBJECT_NAME    = SL-3 R/B
OBJECT_ID      = 1983-010B
CENTER_NAME    = EARTH
REF_FRAME      = TEME
TIME_SYSTEM    = UTC
MEAN_ELEMENT_THEORY = SGP/SGP4

EPOCH          = 2026-03-26T03:06:06.608160
MEAN_MOTION    = 15.46905025
ECCENTRICITY   = .00162906
INCLINATION    = 81.1051
RA_OF_ASC_NODE = 342.0861
ARG_OF_PERICENTER = 355.6276
MEAN_ANOMALY   = 4.4823

EPHEMERIS_TYPE = 0
CLASSIFICATION_TYPE = U
NORAD_CAT_ID   = 13819
ELEMENT_SET_NO = 999
REV_AT_EPOCH   = 36048
BSTAR          = .29510041E-3
MEAN_MOTION_DOT = .14961E-3
MEAN_MOTION_DDOT = 0

CCSDS_OMM_VERS = 2.0
CREATION_DATE  = 
ORIGINATOR     = 

OBJECT_NAME    = SL-3 R/B
OBJECT_ID      = 1983-075B
CENTER_NAME    = EARTH
REF_FRAME      = TEME
TIME_SYSTEM    = UTC
MEAN_ELEMENT_THEORY = SGP/SGP4

EPOCH          = 2026-03-26T06:30:34.406784
MEAN_MOTION    = 15.38797908
ECCENTRICITY   = .00219548
INCLINATION    = 97.6146
RA_OF_ASC_NODE = 90.4816
ARG_OF_PERICENTER = 165.2633
MEAN_ANOMALY   = 194.9257

EPHEMERIS_TYPE = 0
CLASSIFICATION_TYPE = U
NORAD_CAT_ID   = 14208
ELEMENT_SET_NO = 999
REV_AT_EPOCH   = 33270
BSTAR          = .27000389E-3
MEAN_MOTION_DOT = .10356E-3
MEAN_MOTION_DDOT = 0

CCSDS_OMM_VERS = 2.0
CREATION_DATE  = 
ORIGINATOR     = 

OBJECT_NAME    = COSMOS 1536
OBJECT_ID      = 1984-013A
CENTER_NAME    = EARTH
REF_FRAME      = TEME
TIME_SYSTEM    = UTC
MEAN_ELEMENT_THEORY = SGP/SGP4

EPOCH          = 2026-03-26T01:40:21.611712
MEAN_MOTION    = 15.24039935
ECCENTRICITY   = .00130802
INCLINATION    = 82.5421
RA_OF_ASC_NODE = 91.5611
ARG_OF_PERICENTER = 218.6006
MEAN_ANOMALY   = 141.4297

EPHEMERIS_TYPE = 0
CLASSIFICATION_TYPE = U
NORAD_CAT_ID   = 14699
ELEMENT_SET_NO = 999
REV_AT_EPOCH   = 27511
BSTAR          = .23534565E-3
MEAN_MOTION_DOT = .5751E-4
MEAN_MOTION_DDOT = 0

CCSDS_OMM_VERS = 2.0
CREATION_DATE  = 
ORIGINATOR     = 

OBJECT_NAME    = SL-14 R/B
OBJECT_ID      = 1984-027B
CENTER_NAME    = EARTH
REF_FRAME      = TEME
TIME_SYSTEM    = UTC
MEAN_ELEMENT_THEORY = SGP/SGP4

EPOCH          = 2026-03-26T07:48:33.891264
MEAN_MOTION    = 14.85993197
ECCENTRICITY   = .00164816
INCLINATION    = 82.5410
RA_OF_ASC_NODE = 229.4084
ARG_OF_PERICENTER = 279.1670
MEAN_ANOMALY   = 80.7682

EPHEMERIS_TYPE = 0
CLASSIFICATION_TYPE = U
NORAD_CAT_ID   = 14820
ELEMENT_SET_NO = 999
REV_AT_EPOCH   = 25010
BSTAR          = .59041836E-4
MEAN_MOTION_DOT = .541E-5
MEAN_MOTION_DDOT = 0

CCSDS_OMM_VERS = 2.0
CREATION_DATE  = 
ORIGINATOR     = 

OBJECT_NAME    = SL-8 R/B
OBJECT_ID      = 1985-006B
CENTER_NAME    = EARTH
REF_FRAME      = TEME
TIME_SYSTEM    = UTC
MEAN_ELEMENT_THEORY = SGP/SGP4

EPOCH          = 2026-03-25T10:50:01.740192
MEAN_MOTION    = 14.37794350
ECCENTRICITY   = .00178109
INCLINATION    = 74.0444
RA_OF_ASC_NODE = 232.1428
ARG_OF_PERICENTER = 145.5024
MEAN_ANOMALY   = 270.1591

EPHEMERIS_TYPE = 0
CLASSIFICATION_TYPE = U
NORAD_CAT_ID   = 15483
ELEMENT_SET_NO = 999
REV_AT_EPOCH   = 15629
BSTAR          = .11624805E-3
MEAN_MOTION_DOT = .325E-5
MEAN_MOTION_DDOT = 0

CCSDS_OMM_VERS = 2.0
CREATION_DATE  = 
ORIGINATOR     = 

OBJECT_NAME    = SL-12 R/B(2)
OBJECT_ID      = 1985-042D
CENTER_NAME    = EARTH
REF_FRAME      = TEME
TIME_SYSTEM    = UTC
MEAN_ELEMENT_THEORY = SGP/SGP4

EPOCH          = 2026-03-26T07:18:00.962784
MEAN_MOTION    = 14.21986990
ECCENTRICITY   = .00328524
INCLINATION    = 71.1080
RA_OF_ASC_NODE = 52.6240
ARG_OF_PERICENTER = 100.5971
MEAN_ANOMALY   = 3.6806

EPHEMERIS_TYPE = 0
CLASSIFICATION_TYPE = U
NORAD_CAT_ID   = 15772
ELEMENT_SET_NO = 999
REV_AT_EPOCH   = 11675
BSTAR          = .76107212E-4
MEAN_MOTION_DOT = .122E-5
MEAN_MOTION_DDOT = 0

CCSDS_OMM_VERS = 2.0
CREATION_DATE  = 
ORIGINATOR     = 

OBJECT_NAME    = SL-14 R/B
OBJECT_ID      = 1985-069B
CENTER_NAME    = EARTH
REF_FRAME      = TEME
TIME_SYSTEM    = UTC
MEAN_ELEMENT_THEORY = SGP/SGP4

EPOCH          = 2026-03-26T07:19:21.977472
MEAN_MOTION    = 14.86450671
ECCENTRICITY   = .00198751
INCLINATION    = 82.5304
RA_OF_ASC_NODE = 9.3132
ARG_OF_PERICENTER = 133.9594
MEAN_ANOMALY   = 226.3267

EPHEMERIS_TYPE = 0
CLASSIFICATION_TYPE = U
NORAD_CAT_ID   = 15945
ELEMENT_SET_NO = 999
REV_AT_EPOCH   = 17530
BSTAR          = .53681683E-4
MEAN_MOTION_DOT = .5E-5
MEAN_MOTION_DDOT = 0

CCSDS_OMM_VERS = 2.0
CREATION_DATE  = 
ORIGINATOR     = 

OBJECT_NAME    = SL-16 R/B
OBJECT_ID      = 1985-097B
CENTER_NAME    = EARTH
REF_FRAME      = TEME
TIME_SYSTEM    = UTC
MEAN_ELEMENT_THEORY = SGP/SGP4

EPOCH          = 2026-03-26T07:17:06.488448
MEAN_MOTION    = 14.16603371
ECCENTRICITY   = .0009505
INCLINATION    = 71.0009
RA_OF_ASC_NODE = 105.5760
ARG_OF_PERICENTER = 240.3328
MEAN_ANOMALY   = 208.3879

EPHEMERIS_TYPE = 0
CLASSIFICATION_TYPE = U
NORAD_CAT_ID   = 16182
ELEMENT_SET_NO = 999
REV_AT_EPOCH   = 8958
BSTAR          = .50109317E-4
MEAN_MOTION_DOT = .52E-6
MEAN_MOTION_DDOT = 0

CCSDS_OMM_VERS = 2.0
CREATION_DATE  = 
ORIGINATOR     = 

OBJECT_NAME    = SL-14 R/B
OBJECT_ID      = 1986-006B
CENTER_NAME    = EARTH
REF_FRAME      = TEME
TIME_SYSTEM    = UTC
MEAN_ELEMENT_THEORY = SGP/SGP4

EPOCH          = 2026-03-25T22:35:38.342400
MEAN_MOTION    = 14.86838959
ECCENTRICITY   = .0075588
INCLINATION    = 82.5246
RA_OF_ASC_NODE = 244.4375
ARG_OF_PERICENTER = 217.9602
MEAN_ANOMALY   = 141.6275

EPHEMERIS_TYPE = 0
CLASSIFICATION_TYPE = U
NORAD_CAT_ID   = 16496
ELEMENT_SET_NO = 999
REV_AT_EPOCH   = 15162
BSTAR          = .87827E-4
MEAN_MOTION_DOT = .851E-5
MEAN_MOTION_DDOT = 0

CCSDS_OMM_VERS = 2.0
CREATION_DATE  = 
ORIGINATOR     = 

OBJECT_NAME    = COSMOS 1743
OBJECT_ID      = 1986-034A
CENTER_NAME    = EARTH
REF_FRAME      = TEME
TIME_SYSTEM    = UTC
MEAN_ELEMENT_THEORY = SGP/SGP4

EPOCH          = 2026-03-26T04:48:05.100192
MEAN_MOTION    = 15.59875785
ECCENTRICITY   = .00037257
INCLINATION    = 82.5305
RA_OF_ASC_NODE = 56.4844
ARG_OF_PERICENTER = 179.1804
MEAN_ANOMALY   = 180.9460

EPHEMERIS_TYPE = 0
CLASSIFICATION_TYPE = U
NORAD_CAT_ID   = 16719
ELEMENT_SET_NO = 999
REV_AT_EPOCH   = 18282
BSTAR          = .52562654E-3
MEAN_MOTION_DOT = .42433E-3
MEAN_MOTION_DDOT = 0

